PHASE 3B (AO-10)        
1 14129U 83058B   21021.82556569  .00000147  00000-0  00000-0 0  9995
2 14129  25.7887 179.0897 6065622 303.3308  12.4702  2.05866858254908
UOSAT 2 (UO-11)         
1 14781U 84021B   21026.52527265  .00000217  00000-0  32623-4 0  9991
2 14781  97.5899  33.3812 0008365 178.1747 181.9500 14.83241208964890
LUSAT (LO-19)           
1 20442U 90005G   21026.60404399  .00000010  00000-0  20059-4 0  9993
2 20442  98.7229 340.9296 0011066 214.1452 145.9021 14.32974575620510
EYESAT A (AO-27)        
1 22825U 93061C   21026.49108672  .00000019  00000-0  25413-4 0  9995
2 22825  98.9240  40.5676 0009481  88.4876 271.7392 14.30104580425697
ITAMSAT (IO-26)         
1 22826U 93061D   21026.49503160  .00000013  00000-0  22848-4 0  9990
2 22826  98.9182  40.4943 0009975  77.4328 282.7969 14.30442115425935
RADIO ROSTO (RS-15)     
1 23439U 94085A   21026.53277212 -.00000037  00000-0  15882-3 0  9995
2 23439  64.8160 245.4894 0156496   0.7694 359.3444 11.27570224 74331
JAS-2 (FO-29)           
1 24278U 96046B   21026.47820716 -.00000032  00000-0  23067-5 0  9993
2 24278  98.5836 113.1795 0350772 157.2753 204.4353 13.53102273207046
TECHSAT 1B (GO-32)      
1 25397U 98043D   21026.58298308 -.00000018  00000-0  11499-4 0  9992
2 25397  98.7555 332.6515 0002168 112.9220 247.2187 14.23699969171307
ISS (ZARYA)             
1 25544U 98067A   21026.80091690  .00002154  00000-0  47406-4 0  9991
2 25544  51.6469 322.0314 0002273 293.8332 110.3570 15.48896651266680
PCSAT (NO-44)           
1 26931U 01043C   21026.46830735 -.00000008  00000-0  28747-4 0  9997
2 26931  67.0515 286.8688 0007410 271.1781  88.8472 14.30604012  8930
SAUDISAT 1C (SO-50)     
1 27607U 02058C   21026.46512523  .00000082  00000-0  32143-4 0  9993
2 27607  64.5556  52.5146 0029414  83.6867 276.7584 14.75705840973601
CUTE-1 (CO-55)          
1 27844U 03031E   21026.51316201  .00000081  00000-0  56197-4 0  9993
2 27844  98.6817  36.8680 0010727 126.4801 233.7367 14.22284398911809
CUBESAT XI-IV (CO-57)   
1 27848U 03031J   21026.53465488  .00000067  00000-0  50070-4 0  9999
2 27848  98.6878  37.4573 0010468 138.3093 221.8884 14.21864826911648
MOZHAYETS 4 (RS-22)     
1 27939U 03042A   21026.57590581  .00000138  00000-0  33421-4 0  9999
2 27939  98.1169 164.8621 0013047  14.7215 345.4367 14.66936781926728
CUBESAT XI-V            
1 28895U 05043F   21026.32198287  .00000200  00000-0  47322-4 0  9999
2 28895  98.0364 162.8617 0015577 300.1656  59.8003 14.63857724813218
CUTE-1.7+APD II (CO-65) 
1 32785U 08021C   21026.50786144  .00000457  00000-0  54626-4 0  9995
2 32785  97.5956  11.0001 0014378 111.3529 248.9225 14.88619087691051
DELFI-C3 (DO-64)        
1 32789U 08021G   21026.34981357  .00002252  00000-0  14845-3 0  9997
2 32789  97.3939  67.1085 0010335 270.7410  89.2634 15.08429698695409
SEEDS II (CO-66)        
1 32791U 08021J   21026.52232772  .00000791  00000-0  84766-4 0  9996
2 32791  97.5583  17.0483 0014724  80.2966 279.9915 14.91258420691704
YUBILEINY (RS-30)       
1 32953U 08025A   21026.57734677  .00000028  00000-0  12906-3 0  9995
2 32953  82.5054 139.1738 0018476 286.1442  73.7601 12.43099548575357
KKS-1 (KISEKI)          
1 33499U 09002H   21026.54941796  .00000198  00000-0  37010-4 0  9998
2 33499  98.2886 253.1757 0010021 128.7679 231.4427 14.75610888645483
SWISSCUBE               
1 35932U 09051B   21026.49498030  .00000207  00000-0  57725-4 0  9994
2 35932  98.6068 221.9809 0007968 156.1926 203.9641 14.56480793602293
BEESAT-1                
1 35933U 09051C   21026.53523347  .00000184  00000-0  52474-4 0  9990
2 35933  98.6046 223.8770 0005961 166.0066 194.1297 14.56545677602374
ITUPSAT1                
1 35935U 09051E   21026.52388381  .00000161  00000-0  48036-4 0  9992
2 35935  98.6150 224.0303 0008259 169.2064 190.9311 14.55683456602124
XIWANG-1 (HOPE-1)       
1 36122U 09072B   21026.55391616 -.00000033  00000-0  24331-4 0  9993
2 36122 100.1151  13.2018 0008149  70.2370 289.9622 13.16358669534223
JUGNU                   
1 37839U 11058B   21026.28643343  .00000325  00000-0  31574-4 0  9993
2 37839  19.9630  11.3970 0018726 325.4718 162.2854 14.12701538480333
SRMSAT                  
1 37841U 11058D   21026.54740978  .00000284  00000-0  10873-4 0  9990
2 37841  19.9728  78.7527 0011828 173.8476 337.1791 14.10683583479665
M-CUBED & EXP-1 PRIME   
1 37855U 11061F   21026.51247066  .00003178  00000-0  16024-3 0  9994
2 37855 101.7258 236.3031 0168459 132.6806 228.8740 15.07133420504793
STRAND-1                
1 39090U 13009E   21026.52997837  .00000079  00000-0  42774-4 0  9999
2 39090  98.4365 231.9786 0008876 348.1013  11.9961 14.35165789414682
SOMP                    
1 39134U 13015E   21026.40988555  .00002616  00000-0  12305-3 0  9994
2 39134  64.8623 274.1571 0011522 218.9869 141.0430 15.21919133429599
BEESAT-3                
1 39135U 13015F   21026.18180508  .00001943  00000-0  10207-3 0  9993
2 39135  64.8673 301.7991 0015847 205.9934 154.0398 15.18861555429037
BEESAT-2                
1 39136U 13015G   21026.18683913  .00002188  00000-0  11507-3 0  9998
2 39136  64.8743 307.5972 0028770 262.5646  97.2212 15.18241429428918
ZACUBE-1 (TSHEPISOSAT)  
1 39417U 13066B   21026.47645251  .00000426  00000-0  59596-4 0  9995
2 39417  97.5802  18.2719 0057201 266.6213  92.8456 14.81416654388054
GOMX-1                  
1 39430U 13066Q   21026.55615032  .00000114  00000-0  29820-4 0  9994
2 39430  97.8092 317.8169 0150039 201.3776 158.1106 14.59525003382341
CUBEBUG-2 (LO-74)       
1 39440U 13066AA  21026.58256009  .00000486  00000-0  74018-4 0  9994
2 39440  97.6581   3.0876 0079424 336.9110  22.8538 14.76149637385496
FUNCUBE-1 (AO-73)       
1 39444U 13066AE  21026.47894754  .00000522  00000-0  70047-4 0  9990
2 39444  97.5723  20.6037 0056301 257.4755 102.0158 14.82302279386997
UWE-3                   
1 39446U 13066AG  21026.52752254  .00000455  00000-0  66686-4 0  9995
2 39446  97.6209  10.1016 0068553 302.8785  56.5842 14.78684876385533
SPROUT                  
1 39770U 14029E   21026.54921359  .00000863  00000-0  99703-4 0  9990
2 39770  97.9053 138.0890 0008130 320.7368  39.3275 14.88143509362239
UNISAT-6                
1 40012U 14033C   21026.51378356  .00000319  00000-0  54393-4 0  9998
2 40012  97.6865 236.2836 0058219   0.7267 359.4017 14.74232315355281
DUCHIFAT-1              
1 40021U 14033M   21026.55376164  .00000772  00000-0  83612-4 0  9996
2 40021  97.9612 325.3694 0011390 273.4058  86.5857 14.91158424359137
QB50P1                  
1 40025U 14033R   21026.52826490  .00000503  00000-0  59028-4 0  9995
2 40025  97.9268 316.9197 0011075 288.2319  71.7693 14.89314326358298
NUDT-PHONESAT           
1 40900U 15049B   21026.54293420  .00002995  00000-0  12149-3 0  9997
2 40900  97.4264  41.6534 0010544 281.1071 199.0315 15.25367385297184
ZDPS 2A                 
1 40901U 15049C   21026.53308669  .00001608  00000-0  80094-4 0  9994
2 40901  97.4634  35.3804 0012105 322.8295 195.7541 15.18964590296425
ZDPS 2B                 
1 40902U 15049D   21026.51373722  .00001605  00000-0  79924-4 0  9992
2 40902  97.4652  32.6470 0012116 320.0124 192.2747 15.18980485296395
XW-2A                   
1 40903U 15049E   21026.51255708  .00002702  00000-0  60499-4 0  9992
2 40903  97.2591  81.3564 0013169 164.5993 302.9528 15.44269189300882
KAITUO 1A               
1 40904U 15049F   21026.58324169  .00000623  00000-0  35880-4 0  9994
2 40904  97.4833  30.3456 0013755 336.0741 133.1060 15.15976757296047
2015-049G               
1 40905U 15049G   21026.50982354  .00000539  00000-0  32572-4 0  9994
2 40905  97.4948  27.3911 0014711 334.4295 141.5105 15.14803746295842
XW-2C                   
1 40906U 15049H   21026.51307404  .00000797  00000-0  44370-4 0  9998
2 40906  97.4832  30.6939 0013687 325.9673 152.3106 15.16445275296054
XW-2D                   
1 40907U 15049J   21026.53541656  .00001134  00000-0  61160-4 0  9992
2 40907  97.4818  30.4677 0013033 322.9485 154.3243 15.16728506296087
LILACSAT-2              
1 40908U 15049K   21026.55437432  .00000383  00000-0  24533-4 0  9999
2 40908  97.5002  28.5326 0015050 336.1185 140.2909 15.14263489295756
XW-2F                   
1 40910U 15049M   21026.53985953  .00001562  00000-0  78818-4 0  9991
2 40910  97.4714  33.3675 0013046 308.9223 176.4707 15.18549729296185
XW-2B                   
1 40911U 15049N   21026.53208404  .00001126  00000-0  60927-4 0  9999
2 40911  97.4829  31.1593 0012835 323.9468 161.4507 15.16649386295977
KAITUO 1B               
1 40912U 15049P   21026.51478403  .00001542  00000-0  72546-4 0  9998
2 40912  97.4475  37.6661 0012877 280.6992 243.9315 15.21021429296612
TIANWANG 1C (TW-1C)     
1 40926U 15051B   21026.44528539  .00258757  26797-4  80119-3 0  9995
2 40926  97.0486  87.7916 0001701 272.7493 215.6801 15.91679772302099
TIANWANG 1A (TW-1A)     
1 40928U 15051D   21026.51952241  .00004145  00000-0  91537-4 0  9998
2 40928  97.0916  54.8710 0011863  92.1873  65.6357 15.44345949299775
LAPAN-A2                
1 40931U 15052B   21025.96578091  .00000697  00000-0  80654-5 0  9995
2 40931   5.9979 188.5790 0012374 187.4582 172.5681 14.76660175288201
E-ST@R-II               
1 41459U 16025D   21026.45766376  .00002858  00000-0  14374-3 0  9997
2 41459  98.1218 154.4705 0162680 180.5302 179.5817 15.07327115261023
AAUSAT 4                
1 41460U 16025E   21026.36235141  .00005686  00000-0  27080-3 0  9990
2 41460  98.1188 157.5693 0150363 166.9951 193.5227 15.10065755261264
NUSAT-1 (FRESCO)        
1 41557U 16033B   21026.53196367  .00001657  00000-0  61769-4 0  9998
2 41557  97.3968 121.3436 0013650  25.3058  95.3512 15.28804245259846
BEESAT-4                
1 41619U 16040W   21026.41783654  .00003681  00000-0  15077-3 0  9992
2 41619  97.2914  86.3917 0012489 110.9746 249.2830 15.24837577243366
